STARLINK-1611
1 16147C 20057AG  21326.13442203 -.00017823  00000-0 -11943-2 0  3266
2 16147  53.0497 158.1389 0001971  83.4014 298.3360 15.06413148    10
